{"type": "FeatureCollection", "features": [ {"type": "Feature", "properties": {"norad_id": 30121, "name": "FENGYUN 1C DEB", "group": "fengyun-1c-debris", "lat": -35.36432054132027, "lon": 37.815663524815136, "alt_km": 784.6711396273022, "timestamp": "2025-12-27T11:23:20.171572+00:00", "meta": {"OBJECT_NAME": "FENGYUN 1C DEB", "OBJECT_ID": "1999-025SA", "EPOCH": "2025-12-27T00:09:40.462848", "MEAN_MOTION": 14.40173915, "ECCENTRICITY": 0.0030154, "INCLINATION": 102.1641, "RA_OF_ASC_NODE": 28.348, "ARG_OF_PERICENTER": 128.83, "MEAN_ANOMALY": 290.8046, "EPHEMERIS_TYPE": 0, "CLASSIFICATION_TYPE": "U", "NORAD_CAT_ID": 30121, "ELEMENT_SET_NO": 999, "REV_AT_EPOCH": 97745, "BSTAR": 0.0023956, "MEAN_MOTION_DOT": 7.547e-05, "MEAN_MOTION_DDOT": 0}, "tle": {"line1": "1 30121U 99025SA  25361.00671832  .00007547  00000+0  23956-2 0  9995", "line2": "2 30121 102.1641  28.3480 0030154 128.8300 290.8046 14.40173915977450"}}, "geometry": {"type": "Point", "coordinates": [37.815663524815136, -35.36432054132027]}}, {"type": "Feature", "properties": {"norad_id": 30123, "name": "FENGYUN 1C DEB", "group": "fengyun-1c-debris", "lat": 69.28474142347905, "lon": -79.87454452330466, "alt_km": 653.962672046323, "timestamp": "2025-12-27T11:23:20.171582+00:00", "meta": {"OBJECT_NAME": "FENGYUN 1C DEB", "OBJECT_ID": "1999-025SC", "EPOCH": "2025-12-25T15:17:37.225824", "MEAN_MOTION": 14.26107151, "ECCENTRICITY": 0.0230673, "INCLINATION": 96.9277, "RA_OF_ASC_NODE": 297.4229, "ARG_OF_PERICENTER": 45.7788, "MEAN_ANOMALY": 316.2087, "EPHEMERIS_TYPE": 0, "CLASSIFICATION_TYPE": "U", "NORAD_CAT_ID": 30123, "ELEMENT_SET_NO": 999, "REV_AT_EPOCH": 97431, "BSTAR": 0.0022049, "MEAN_MOTION_DOT": 6.952e-05, "MEAN_MOTION_DDOT": 0}, "tle": {"line1": "1 30123U 99025SC  25359.63723641  .00006952  00000+0  22049-2 0  9990", "line2": "2 30123  96.9277 297.4229 0230673  45.7788 316.2087 14.26107151974315"}}, "geometry": {"type": "Point", "coordinates": [-79.87454452330466, 69.28474142347905]}}, {"type": "Feature", "properties": {"norad_id": 30124, "name": "FENGYUN 1C DEB", "group": "fengyun-1c-debris", "lat": 80.75598518981887, "lon": -43.17319262872132, "alt_km": 745.2657546117562, "timestamp": "2025-12-27T11:23:20.171592+00:00", "meta": {"OBJECT_NAME": "FENGYUN 1C DEB", "OBJECT_ID": "1999-025SD", "EPOCH": "2025-12-27T02:46:11.879328", "MEAN_MOTION": 14.1428145, "ECCENTRICITY": 0.0142533, "INCLINATION": 99.1304, "RA_OF_ASC_NODE": 55.299, "ARG_OF_PERICENTER": 65.4044, "MEAN_ANOMALY": 357.8364, "EPHEMERIS_TYPE": 0, "CLASSIFICATION_TYPE": "U", "NORAD_CAT_ID": 30124, "ELEMENT_SET_NO": 999, "REV_AT_EPOCH": 97118, "BSTAR": 0.00088317, "MEAN_MOTION_DOT": 1.814e-05, "MEAN_MOTION_DDOT": 0}, "tle": {"line1": "1 30124U 99025SD  25361.11541527  .00001814  00000+0  88317-3 0  9991", "line2": "2 30124  99.1304  55.2990 0142533  65.4044 357.8364 14.14281450971181"}}, "geometry": {"type": "Point", "coordinates": [-43.17319262872132, 80.75598518981887]}}, {"type": "Feature", "properties": {"norad_id": 30125, "name": "FENGYUN 1C DEB", "group": "fengyun-1c-debris", "lat": -26.51822560971953, "lon": 104.55903146653485, "alt_km": 610.9137472458588, "timestamp": "2025-12-27T11:23:20.171603+00:00", "meta": {"OBJECT_NAME": "FENGYUN 1C DEB", "OBJECT_ID": "1999-025SE", "EPOCH": "2025-12-27T00:33:09.734112", "MEAN_MOTION": 14.22723055, "ECCENTRICITY": 0.0341481, "INCLINATION": 98.7226, "RA_OF_ASC_NODE": 99.7176, "ARG_OF_PERICENTER": 302.6719, "MEAN_ANOMALY": 237.3259, "EPHEMERIS_TYPE": 0, "CLASSIFICATION_TYPE": "U", "NORAD_CAT_ID": 30125, "ELEMENT_SET_NO": 999, "REV_AT_EPOCH": 97124, "BSTAR": 0.00078949, "MEAN_MOTION_DOT": 3.169e-05, "MEAN_MOTION_DDOT": 0}, "tle": {"line1": "1 30125U 99025SE  25361.02302933  .00003169  00000+0  78949-3 0  9993", "line2": "2 30125  98.7226  99.7176 0341481 302.6719 237.3259 14.22723055971240"}}, "geometry": {"type": "Point", "coordinates": [104.55903146653485, -26.51822560971953]}}, {"type": "Feature", "properties": {"norad_id": 30127, "name": "FENGYUN 1C DEB", "group": "fengyun-1c-debris", "lat": 62.03702828410602, "lon": 53.103114123252006, "alt_km": 749.0671212636125, "timestamp": "2025-12-27T11:23:20.171612+00:00", "meta": {"OBJECT_NAME": "FENGYUN 1C DEB", "OBJECT_ID": "1999-025SG", "EPOCH": "2025-12-26T03:07:48.948960", "MEAN_MOTION": 14.38179501, "ECCENTRICITY": 0.00859474, "INCLINATION": 98.2064, "RA_OF_ASC_NODE": 216.0454, "ARG_OF_PERICENTER": 39.0779, "MEAN_ANOMALY": 321.6576, "EPHEMERIS_TYPE": 0, "CLASSIFICATION_TYPE": "U", "NORAD_CAT_ID": 30127, "ELEMENT_SET_NO": 999, "REV_AT_EPOCH": 97428, "BSTAR": 0.0023175369, "MEAN_MOTION_DOT": 7.307e-05, "MEAN_MOTION_DDOT": 0}, "tle": {"line1": "1 30127U 99025SG  25360.13042765  .00007307  00000+0  23175-2 0  9998", "line2": "2 30127  98.2064 216.0454 0085947  39.0779 321.6576 14.38179501974283"}}, "geometry": {"type": "Point", "coordinates": [53.103114123252006, 62.03702828410602]}}, {"type": "Feature", "properties": {"norad_id": 30128, "name": "FENGYUN 1C DEB", "group": "fengyun-1c-debris", "lat": 15.415139659856898, "lon": 179.5685222412623, "alt_km": 731.6982957585678, "timestamp": "2025-12-27T11:23:20.171623+00:00", "meta": {"OBJECT_NAME": "FENGYUN 1C DEB", "OBJECT_ID": "1999-025SH", "EPOCH": "2025-12-26T23:09:10.473984", "MEAN_MOTION": 14.46368009, "ECCENTRICITY": 0.0107559, "INCLINATION": 96.9808, "RA_OF_ASC_NODE": 357.2121, "ARG_OF_PERICENTER": 80.2831, "MEAN_ANOMALY": 309.7657, "EPHEMERIS_TYPE": 0, "CLASSIFICATION_TYPE": "U", "NORAD_CAT_ID": 30128, "ELEMENT_SET_NO": 999, "REV_AT_EPOCH": 97517, "BSTAR": 0.003251, "MEAN_MOTION_DOT": 0.00012524, "MEAN_MOTION_DDOT": 0}, "tle": {"line1": "1 30128U 99025SH  25360.96470456  .00012524  00000+0  32510-2 0  9992", "line2": "2 30128  96.9808 357.2121 0107559  80.2831 309.7657 14.46368009975173"}}, "geometry": {"type": "Point", "coordinates": [179.5685222412623, 15.415139659856898]}}, {"type": "Feature", "properties": {"norad_id": 30129, "name": "FENGYUN 1C DEB", "group": "fengyun-1c-debris", "lat": -80.94483788743003, "lon": 3.9396867051582034, "alt_km": 993.4679094385438, "timestamp": "2025-12-27T11:23:20.171633+00:00", "meta": {"OBJECT_NAME": "FENGYUN 1C DEB", "OBJECT_ID": "1999-025SJ", "EPOCH": "2025-12-26T18:55:52.797792", "MEAN_MOTION": 14.01609297, "ECCENTRICITY": 0.01881586, "INCLINATION": 98.0313, "RA_OF_ASC_NODE": 300.9735, "ARG_OF_PERICENTER": 52.612, "MEAN_ANOMALY": 4.9672, "EPHEMERIS_TYPE": 0, "CLASSIFICATION_TYPE": "U", "NORAD_CAT_ID": 30129, "ELEMENT_SET_NO": 999, "REV_AT_EPOCH": 96675, "BSTAR": 0.00074028799, "MEAN_MOTION_DOT": 1.273e-05, "MEAN_MOTION_DDOT": 0}, "tle": {"line1": "1 30129U 99025SJ  25360.78880553  .00001273  00000+0  74029-3 0  9997", "line2": "2 30129  98.0313 300.9735 0188158  52.6120   4.9672 14.01609297966755"}}, "geometry": {"type": "Point", "coordinates": [3.9396867051582034, -80.94483788743003]}}, {"type": "Feature", "properties": {"norad_id": 30131, "name": "FENGYUN 1C DEB", "group": "fengyun-1c-debris", "lat": -50.37306773269292, "lon": 104.83967158473646, "alt_km": 885.227722350679, "timestamp": "2025-12-27T11:23:20.171643+00:00", "meta": {"OBJECT_NAME": "FENGYUN 1C DEB", "OBJECT_ID": "1999-025SL", "EPOCH": "2025-12-27T03:32:29.413824", "MEAN_MOTION": 14.21339453, "ECCENTRICITY": 0.0081562, "INCLINATION": 99.0736, "RA_OF_ASC_NODE": 93.3768, "ARG_OF_PERICENTER": 118.3989, "MEAN_ANOMALY": 318.4575, "EPHEMERIS_TYPE": 0, "CLASSIFICATION_TYPE": "U", "NORAD_CAT_ID": 30131, "ELEMENT_SET_NO": 999, "REV_AT_EPOCH": 96893, "BSTAR": 0.0027646, "MEAN_MOTION_DOT": 6.198e-05, "MEAN_MOTION_DDOT": 0}, "tle": {"line1": "1 30131U 99025SL  25361.14756266  .00006198  00000+0  27646-2 0  9997", "line2": "2 30131  99.0736  93.3768 0081562 118.3989 318.4575 14.21339453968934"}}, "geometry": {"type": "Point", "coordinates": [104.83967158473646, -50.37306773269292]}}, {"type": "Feature", "properties": {"norad_id": 30132, "name": "FENGYUN 1C DEB", "group": "fengyun-1c-debris", "lat": -19.41097401982345, "lon": -40.97745100349628, "alt_km": 849.7738422012153, "timestamp": "2025-12-27T11:23:20.171653+00:00", "meta": {"OBJECT_NAME": "FENGYUN 1C DEB", "OBJECT_ID": "1999-025SM", "EPOCH": "2025-12-27T02:57:02.606112", "MEAN_MOTION": 13.94870317, "ECCENTRICITY": 0.0105458, "INCLINATION": 99.5794, "RA_OF_ASC_NODE": 315.2463, "ARG_OF_PERICENTER": 11.2824, "MEAN_ANOMALY": 5.1461, "EPHEMERIS_TYPE": 0, "CLASSIFICATION_TYPE": "U", "NORAD_CAT_ID": 30132, "ELEMENT_SET_NO": 999, "REV_AT_EPOCH": 96290, "BSTAR": 0.00051658, "MEAN_MOTION_DOT": 6.79e-06, "MEAN_MOTION_DDOT": 0}, "tle": {"line1": "1 30132U 99025SM  25361.12294683  .00000679  00000+0  51658-3 0  9995", "line2": "2 30132  99.5794 315.2463 0105458  11.2824   5.1461 13.94870317962905"}}, "geometry": {"type": "Point", "coordinates": [-40.97745100349628, -19.41097401982345]}}, {"type": "Feature", "properties": {"norad_id": 30133, "name": "FENGYUN 1C DEB", "group": "fengyun-1c-debris", "lat": 48.335871089660095, "lon": -3.5282210905053373, "alt_km": 863.2639462084435, "timestamp": "2025-12-27T11:23:20.171688+00:00", "meta": {"OBJECT_NAME": "FENGYUN 1C DEB", "OBJECT_ID": "1999-025SN", "EPOCH": "2025-12-26T11:10:46.078176", "MEAN_MOTION": 14.06739598, "ECCENTRICITY": 0.008595, "INCLINATION": 98.3251, "RA_OF_ASC_NODE": 166.072, "ARG_OF_PERICENTER": 221.6049, "MEAN_ANOMALY": 204.6819, "EPHEMERIS_TYPE": 0, "CLASSIFICATION_TYPE": "U", "NORAD_CAT_ID": 30133, "ELEMENT_SET_NO": 999, "REV_AT_EPOCH": 96571, "BSTAR": 0.0016636, "MEAN_MOTION_DOT": 2.819e-05, "MEAN_MOTION_DDOT": 0}, "tle": {"line1": "1 30133U 99025SN  25360.46581109  .00002819  00000+0  16636-2 0  9998", "line2": "2 30133  98.3251 166.0720 0085950 221.6049 204.6819 14.06739598965713"}}, "geometry": {"type": "Point", "coordinates": [-3.5282210905053373, 48.335871089660095]}}]}